{
    "links": {
        "self": "http://www.neowsapp.com/rest/v1/neo/3290081?api_key=iIulBulltgU6a56xZRHN4H3l9WmuAYTsLGpBGhQ2"
    },
    "id": "3290081",
    "neo_reference_id": "3290081",
    "name": "(2005 RP6)",
    "designation": "2005 RP6",
    "nasa_jpl_url": "http://ssd.jpl.nasa.gov/sbdb.cgi?sstr=3290081",
    "absolute_magnitude_h": 21.2,
    "estimated_diameter": {
        "kilometers": {
            "estimated_diameter_min": 0.1529519353,
            "estimated_diameter_max": 0.3420109247
        },
        "meters": {
            "estimated_diameter_min": 152.9519353442,
            "estimated_diameter_max": 342.0109247198
        },
        "miles": {
            "estimated_diameter_min": 0.095039897,
            "estimated_diameter_max": 0.2125156703
        },
        "feet": {
            "estimated_diameter_min": 501.8108275547,
            "estimated_diameter_max": 1122.0831222578
        }
    },
    "is_potentially_hazardous_asteroid": false,
    "close_approach_data": [
        {
            "close_approach_date": "1957-04-24",
            "close_approach_date_full": "1957-Apr-24 04:59",
            "epoch_date_close_approach": -400446060000,
            "relative_velocity": {
                "kilometers_per_second": "20.6104484619",
                "kilometers_per_hour": "74197.6144626848",
                "miles_per_hour": "46103.5121643277"
            },
            "miss_distance": {
                "astronomical": "0.373747651",
                "lunar": "145.387836239",
                "kilometers": "55911852.50710337",
                "miles": "34742014.139311706"
            },
            "orbiting_body": "Earth"
        },
        {
            "close_approach_date": "2005-08-21",
            "close_approach_date_full": "2005-Aug-21 12:59",
            "epoch_date_close_approach": 1124629140000,
            "relative_velocity": {
                "kilometers_per_second": "14.6374751576",
                "kilometers_per_hour": "52694.9105672336",
                "miles_per_hour": "32742.5681799569"
            },
            "miss_distance": {
                "astronomical": "0.1439206863",
                "lunar": "55.9851469707",
                "kilometers": "21530228.119418181",
                "miles": "13378263.3950896578"
            },
            "orbiting_body": "Earth"
        },
        {
            "close_approach_date": "2012-04-21",
            "close_approach_date_full": "2012-Apr-21 07:56",
            "epoch_date_close_approach": 1334994960000,
            "relative_velocity": {
                "kilometers_per_second": "22.2706120846",
                "kilometers_per_hour": "80174.2035045679",
                "miles_per_hour": "49817.1321720467"
            },
            "miss_distance": {
                "astronomical": "0.4239103973",
                "lunar": "164.9011445497",
                "kilometers": "63416092.506933751",
                "miles": "39404932.6528017238"
            },
            "orbiting_body": "Earth"
        },
        {
            "close_approach_date": "2060-09-08",
            "close_approach_date_full": "2060-Sep-08 19:22",
            "epoch_date_close_approach": 2861896920000,
            "relative_velocity": {
                "kilometers_per_second": "23.9119154582",
                "kilometers_per_hour": "86082.8956495348",
                "miles_per_hour": "53488.5636884568"
            },
            "miss_distance": {
                "astronomical": "0.4329096095",
                "lunar": "168.4018380955",
                "kilometers": "64762355.483731765",
                "miles": "40241461.676217757"
            },
            "orbiting_body": "Earth"
        },
        {
            "close_approach_date": "2184-05-01",
            "close_approach_date_full": "2184-May-01 21:13",
            "epoch_date_close_approach": 6763727580000,
            "relative_velocity": {
                "kilometers_per_second": "18.4697929957",
                "kilometers_per_hour": "66491.2547846806",
                "miles_per_hour": "41315.0799521811"
            },
            "miss_distance": {
                "astronomical": "0.3387945959",
                "lunar": "131.7910978051",
                "kilometers": "50682949.914150733",
                "miles": "31492924.7303287954"
            },
            "orbiting_body": "Earth"
        }
    ],
    "orbital_data": {
        "orbit_id": "13",
        "orbit_determination_date": "2017-04-06 09:10:31",
        "first_observation_date": "2005-09-08",
        "last_observation_date": "2005-10-24",
        "data_arc_in_days": 46,
        "observations_used": 48,
        "orbit_uncertainty": "6",
        "minimum_orbit_intersection": ".126668",
        "jupiter_tisserand_invariant": "3.338",
        "epoch_osculation": "2459000.5",
        "eccentricity": ".5761673383322782",
        "semi_major_axis": "2.280204882575004",
        "inclination": "12.52353129316273",
        "ascending_node_longitude": "351.032285772229",
        "orbital_period": "1257.648374422696",
        "perihelion_distance": ".9664253045294989",
        "perihelion_argument": "287.3031501370431",
        "aphelion_distance": "3.593984460620508",
        "perihelion_time": "2458593.264971151613",
        "mean_anomaly": "116.5704288789908",
        "mean_motion": ".2862485312440787",
        "equinox": "J2000",
        "orbit_class": {
            "orbit_class_type": "APO",
            "orbit_class_description": "Near-Earth asteroid orbits which cross the Earth’s orbit similar to that of 1862 Apollo",
            "orbit_class_range": "a (semi-major axis) > 1.0 AU; q (perihelion) < 1.017 AU"
        }
    },
    "is_sentry_object": false
}